[
    {
        "Altitude(m)": 702693.1577101117,
        "Argument of Periapsis(deg)": 0.0034170363559881197,
        "Eccentricity": 0.0,
        "Inclination(deg)": 45.0,
        "Latitude(deg)": 13.899211037174904,
        "Longitude(deg)": 89.03786321206391,
        "Mean Anomaly(deg)": 19.823564994244254,
        "RAAN(deg)": 174.99677441756256,
        "Satellite Name": "Constellation 1 771",
        "Satellite Number": 771,
        "Semi-Major Axis(m)": 7083131.272910544,
        "Time(s)": 57
    },
    {
        "Altitude(m)": 702694.0833168997,
        "Argument of Periapsis(deg)": 0.003476984362233526,
        "Eccentricity": 0.0,
        "Inclination(deg)": 45.0,
        "Latitude(deg)": 13.941084179791373,
        "Longitude(deg)": 89.07924266486623,
        "Mean Anomaly(deg)": 19.88426613449414,
        "RAAN(deg)": 174.99671782839698,
        "Satellite Name": "Constellation 1 771",
        "Satellite Number": 771,
        "Semi-Major Axis(m)": 7083131.272910544,
        "Time(s)": 58
    },
    {
        "Altitude(m)": 702695.0268442426,
        "Argument of Periapsis(deg)": 0.003536932368478932,
        "Eccentricity": 0.0,
        "Inclination(deg)": 45.0,
        "Latitude(deg)": 13.982948711959194,
        "Longitude(deg)": 89.12063837475715,
        "Mean Anomaly(deg)": 19.94496727474405,
        "RAAN(deg)": 174.9966612392314,
        "Satellite Name": "Constellation 1 771",
        "Satellite Number": 771,
        "Semi-Major Axis(m)": 7083131.272910544,
        "Time(s)": 59
    },
    {
        "Altitude(m)": 702695.9882699845,
        "Argument of Periapsis(deg)": 0.003596880374724337,
        "Eccentricity": 0.0,
        "Inclination(deg)": 45.0,
        "Latitude(deg)": 14.02480460362362,
        "Longitude(deg)": 89.16205073165814,
        "Mean Anomaly(deg)": 20.005668414993938,
        "RAAN(deg)": 174.99660465006582,
        "Satellite Name": "Constellation 1 771",
        "Satellite Number": 771,
        "Semi-Major Axis(m)": 7083131.272910544,
        "Time(s)": 60
    },
    {
        "Altitude(m)": 702696.9675718851,
        "Argument of Periapsis(deg)": 0.0036568283809697427,
        "Eccentricity": 0.0,
        "Inclination(deg)": 45.0,
        "Latitude(deg)": 14.06665182469769,
        "Longitude(deg)": 89.20347962122887,
        "Mean Anomaly(deg)": 20.06636955524385,
        "RAAN(deg)": 174.99654806090027,
        "Satellite Name": "Constellation 1 771",
        "Satellite Number": 771,
        "Semi-Major Axis(m)": 7083131.272910544,
        "Time(s)": 61
    },
    {
        "Altitude(m)": 702697.9647276372,
        "Argument of Periapsis(deg)": 0.003716776387215149,
        "Eccentricity": 0.0,
        "Inclination(deg)": 45.0,
        "Latitude(deg)": 14.10849034506223,
        "Longitude(deg)": 89.24492509725563,
        "Mean Anomaly(deg)": 20.127070695493735,
        "RAAN(deg)": 174.99649147173471,
        "Satellite Name": "Constellation 1 771",
        "Satellite Number": 771,
        "Semi-Major Axis(m)": 7083131.272910544,
        "Time(s)": 62
    },
    {
        "Altitude(m)": 702698.9797148566,
        "Argument of Periapsis(deg)": 0.003776724393460554,
        "Eccentricity": 0.0,
        "Inclination(deg)": 45.0,
        "Latitude(deg)": 14.150320134565757,
        "Longitude(deg)": 89.2863872135546,
        "Mean Anomaly(deg)": 20.187771835743646,
        "RAAN(deg)": 174.99643488256913,
        "Satellite Name": "Constellation 1 771",
        "Satellite Number": 771,
        "Semi-Major Axis(m)": 7083131.272910544,
        "Time(s)": 63
    },
    {
        "Altitude(m)": 702700.012511084,
        "Argument of Periapsis(deg)": 0.003836672399705959,
        "Eccentricity": 0.0,
        "Inclination(deg)": 45.0,
        "Latitude(deg)": 14.192141163024358,
        "Longitude(deg)": 89.32786602397157,
        "Mean Anomaly(deg)": 20.24847297599356,
        "RAAN(deg)": 174.99637829340355,
        "Satellite Name": "Constellation 1 771",
        "Satellite Number": 771,
        "Semi-Major Axis(m)": 7083131.272910544,
        "Time(s)": 64
    },
    {
        "Altitude(m)": 702701.0630937915,
        "Argument of Periapsis(deg)": 0.003896620405951365,
        "Eccentricity": 0.0,
        "Inclination(deg)": 45.0,
        "Latitude(deg)": 14.23395340022152,
        "Longitude(deg)": 89.36936158238198,
        "Mean Anomaly(deg)": 20.309174116243444,
        "RAAN(deg)": 174.996321704238,
        "Satellite Name": "Constellation 1 771",
        "Satellite Number": 771,
        "Semi-Major Axis(m)": 7083131.272910544,
        "Time(s)": 65
    },
    {
        "Altitude(m)": 702702.1314403731,
        "Argument of Periapsis(deg)": 0.003956568412196771,
        "Eccentricity": 0.0,
        "Inclination(deg)": 45.0,
        "Latitude(deg)": 14.275756815908172,
        "Longitude(deg)": 89.41087394269121,
        "Mean Anomaly(deg)": 20.36987525649336,
        "RAAN(deg)": 174.99626511507242,
        "Satellite Name": "Constellation 1 771",
        "Satellite Number": 771,
        "Semi-Major Axis(m)": 7083131.272910544,
        "Time(s)": 66
    },
    {
        "Altitude(m)": 702703.2175281444,
        "Argument of Periapsis(deg)": 0.004016516418442176,
        "Eccentricity": 0.0,
        "Inclination(deg)": 45.0,
        "Latitude(deg)": 14.317551379802385,
        "Longitude(deg)": 89.45240299073726,
        "Mean Anomaly(deg)": 20.430576396743245,
        "RAAN(deg)": 174.99620852590687,
        "Satellite Name": "Constellation 1 771",
        "Satellite Number": 771,
        "Semi-Major Axis(m)": 7083131.272910544,
        "Time(s)": 67
    },
    {
        "Altitude(m)": 702704.321334363,
        "Argument of Periapsis(deg)": 0.004076464424687581,
        "Eccentricity": 0.0,
        "Inclination(deg)": 45.0,
        "Latitude(deg)": 14.359337061589434,
        "Longitude(deg)": 89.49394911667936,
        "Mean Anomaly(deg)": 20.49127753699313,
        "RAAN(deg)": 174.99615193674126,
        "Satellite Name": "Constellation 1 771",
        "Satellite Number": 771,
        "Semi-Major Axis(m)": 7083131.272910544,
        "Time(s)": 68
    },
    {
        "Altitude(m)": 702705.442836199,
        "Argument of Periapsis(deg)": 0.004136412430932987,
        "Eccentricity": 0.0,
        "Inclination(deg)": 45.0,
        "Latitude(deg)": 14.401113830921595,
        "Longitude(deg)": 89.53551220641538,
        "Mean Anomaly(deg)": 20.551978677243017,
        "RAAN(deg)": 174.9960953475757,
        "Satellite Name": "Constellation 1 771",
        "Satellite Number": 771,
        "Semi-Major Axis(m)": 7083131.272910544,
        "Time(s)": 69
    },
    {
        "Altitude(m)": 702706.5820107553,
        "Argument of Periapsis(deg)": 0.004196360437178394,
        "Eccentricity": 0.0,
        "Inclination(deg)": 45.0,
        "Latitude(deg)": 14.442881657418033,
        "Longitude(deg)": 89.57709231397008,
        "Mean Anomaly(deg)": 20.612679817492932,
        "RAAN(deg)": 174.99603875841015,
        "Satellite Name": "Constellation 1 771",
        "Satellite Number": 771,
        "Semi-Major Axis(m)": 7083131.272910544,
        "Time(s)": 70
    },
    {
        "Altitude(m)": 702707.7388350639,
        "Argument of Periapsis(deg)": 0.004256308443423799,
        "Eccentricity": 0.0,
        "Inclination(deg)": 45.0,
        "Latitude(deg)": 14.484640510664688,
        "Longitude(deg)": 89.6186894933984,
        "Mean Anomaly(deg)": 20.673380957742815,
        "RAAN(deg)": 174.99598216924457,
        "Satellite Name": "Constellation 1 771",
        "Satellite Number": 771,
        "Semi-Major Axis(m)": 7083131.272910544,
        "Time(s)": 71
    },
    {
        "Altitude(m)": 702708.9132860801,
        "Argument of Periapsis(deg)": 0.004316256449669204,
        "Eccentricity": 0.0,
        "Inclination(deg)": 45.0,
        "Latitude(deg)": 14.526390360214233,
        "Longitude(deg)": 89.66030379878518,
        "Mean Anomaly(deg)": 20.73408209799273,
        "RAAN(deg)": 174.99592558007902,
        "Satellite Name": "Constellation 1 771",
        "Satellite Number": 771,
        "Semi-Major Axis(m)": 7083131.272910544,
        "Time(s)": 72
    },
    {
        "Altitude(m)": 702710.1053406894,
        "Argument of Periapsis(deg)": 0.00437620445591461,
        "Eccentricity": 0.0,
        "Inclination(deg)": 45.0,
        "Latitude(deg)": 14.56813117558594,
        "Longitude(deg)": 89.7019352842453,
        "Mean Anomaly(deg)": 20.79478323824264,
        "RAAN(deg)": 174.99586899091344,
        "Satellite Name": "Constellation 1 771",
        "Satellite Number": 771,
        "Semi-Major Axis(m)": 7083131.272910544,
        "Time(s)": 73
    },
    {
        "Altitude(m)": 702711.3149757012,
        "Argument of Periapsis(deg)": 0.004436152462160016,
        "Eccentricity": 0.0,
        "Inclination(deg)": 45.0,
        "Latitude(deg)": 14.609862926265416,
        "Longitude(deg)": 89.74358383582661,
        "Mean Anomaly(deg)": 20.855484378492527,
        "RAAN(deg)": 174.99581240174786,
        "Satellite Name": "Constellation 1 771",
        "Satellite Number": 771,
        "Semi-Major Axis(m)": 7083131.272910544,
        "Time(s)": 74
    },
    {
        "Altitude(m)": 702712.542167856,
        "Argument of Periapsis(deg)": 0.0044961004684054215,
        "Eccentricity": 0.0,
        "Inclination(deg)": 45.0,
        "Latitude(deg)": 14.651585581704861,
        "Longitude(deg)": 89.78524984389857,
        "Mean Anomaly(deg)": 20.916185518742438,
        "RAAN(deg)": 174.9957558125823,
        "Satellite Name": "Constellation 1 771",
        "Satellite Number": 771,
        "Semi-Major Axis(m)": 7083131.272910544,
        "Time(s)": 75
    }
]